LUDI TANCE 1-01A (L-SA*)
1 51284U 22007A   26157.29036845  .00000728  00000+0  84377-4 0  9998
2 51284  97.8104 164.8652 0001603  90.0363 270.1038 14.88420509236850
LUDI TANCE 1-01B (L-SA*)
1 51822U 22018A   26157.32396505  .00000711  00000+0  82533-4 0  9998
2 51822  97.8109 164.8941 0001577  93.9564 266.1833 14.88422712232097
JILIN-1 GAOFEN 03D15    
1 51839U 22019R   26156.92232892  .04986191  24754-5  94850-3 0  9991
2 51839  97.3560 254.9435 0012717 264.8257  95.1587 16.31769192238342
2022-023F               
1 51951U 22023F   26156.61571186  .00016965  00000+0  67145-3 0  9997
2 51951  63.4460 312.8176 0128936 343.1404  16.5440 15.18178709235953
MERIDIAN 10             
1 52145U 22030A   26156.50560089  .00000223  00000+0  00000+0 0  9992
2 52145  62.6780 142.0470 6780520 272.8634  17.6773  2.00614940 30792
OMNI-L1                 
1 52157U 22033A   26156.43656647  .00002324  00000+0  29445-3 0  9998
2 52157  97.8390 235.8425 0004385 338.0481  22.0544 14.82704063225713
ENMAP                   
1 52159U 22033C   26157.24350031  .00000274  00000+0  48196-4 0  9995
2 52159  97.9789 239.6480 0001396  79.2466 280.8900 14.74977813225049
ARCSAT-1                
1 52161U 22033E   26155.24258031  .00014842  00000+0  23695-3 0  9995
2 52161  97.2749 247.3261 0003576 231.4725 128.6209 15.53290234233690
GLOBAL-18               
1 52196U 22034B   26157.13616951  .00029246  00000+0  60048-3 0  9990
2 52196  52.9830 309.4363 0003508 219.6317 140.4432 15.45795168235251
GAOFEN-3 03             
1 52200U 22035A   26157.33731669  .00000046  00000+0  27035-4 0  9990
2 52200  98.4063 166.0754 0001067  94.1629 265.9682 14.42213873219280
DAQI-1                  
1 52257U 22039A   26157.29975564  .00000541  00000+0  12844-3 0  9996
2 52257  98.1487  96.3775 0002569 307.7015  52.3951 14.57671777220351
BRO-6                   
1 52422U 22047AE  26157.29319966  .00046588  00000+0  83468-3 0  9998
2 52422  97.3395 248.1455 0005749 113.0691 247.1167 15.49800000229466
JILIN-1 GAOFEN 3D27     
1 52444U 22048B   26156.83931445  .00146381  00000+0  10710-2 0  9995
2 52444  97.5697 269.7707 0002589  98.7866 261.3691 15.72760792227690
JILIN-1 GAOFEN 3D28     
1 52445U 22048C   26157.17665674  .00160719  00000+0  10438-2 0  9990
2 52445  97.5643 270.2452 0001890 146.5115 213.6270 15.75504894227795
VIGORIDE-3              
1 52760U 22057AE  26157.14376360  .00007516  00000+0  28483-3 0  9993
2 52760  97.6599 296.8280 0008914 154.7626 205.4049 15.27163249223477
ION SCV-006             
1 52761U 22057AF  26157.22053787  .00016915  00000+0  35811-3 0  9994
2 52761  97.6095 305.3199 0018092 150.8537 209.3725 15.45015835224427
SHERPA-AC1              
1 52763U 22057AH  26156.86313200  .00009397  00000+0  26931-3 0  9993
2 52763  97.6679 305.6196 0008753 127.7405 232.4633 15.36102557223968
OMNI-L2                 
1 52771U 22057AR  26156.43685013  .00001579  00000+0  20817-3 0  9990
2 52771  97.4719 219.5847 0006863  17.0910 343.0534 14.81338531218659
STEP CUBE LAB-II        
1 52897U 22065D   26157.26357853  .00001025  00000+0  20794-3 0  9998
2 52897  98.2222 301.1996 0009854  62.9625 297.2581 14.63286370209907
RANDEV                  
1 52898U 22065E   26157.19917860  .00001006  00000+0  20250-3 0  9997
2 52898  98.2205 301.4823 0009193  63.5253 296.6891 14.63672756209646
SNUGLITE-II             
1 52899U 22065F   26156.34645693  .00001089  00000+0  21540-3 0  9990
2 52899  98.2190 301.1992 0008603  66.1364 294.0739 14.64324999209266
MIMAN                   
1 52900U 22065G   26156.34374612  .00000626  00000+0  13478-3 0  9990
2 52900  98.2247 298.8869 0008782  67.7423 292.4709 14.61830654208713
STARLINK-4362           
1 53043U 22077A   26156.50249582 -.00006260  00000+0 -42987-3 0  9996
2 53043  97.3985 335.9656 0002361  86.0060 274.1437 15.05678406214127
LARES-2                 
1 53105U 22080A   26154.55208436 -.00000012  00000+0  00000+0 0  9999
2 53105  70.1655 310.0052 0005379 337.8766  22.1504  6.38965171 90790
GREENCUBE (IO-117)      
1 53109U 22080E   26152.46502029 -.00000003  00000+0  00000+0 0  9996
2 53109  70.1435 303.7143 0008869 293.3663  66.6064  6.42583280 91055
STARLINK-4410           
1 53204U 22084R   26157.25002315  .00031812  00000+0  12020-2 0  9990
2 53204  97.5997 218.1118 0001282  76.1115 112.2606 15.26928992  5655
COSMOS 2558             
1 53323U 22089A   26156.89382508  .00132437  00000+0  96647-3 0  9994
2 53323  97.2256 260.5175 0000740 173.6635 186.4639 15.72866911216054
