OBJECT_NAME,OBJECT_ID,EPOCH,MEAN_MOTION,ECCENTRICITY,INCLINATION,RA_OF_ASC_NODE,ARG_OF_PERICENTER,MEAN_ANOMALY,EPHEMERIS_TYPE,CLASSIFICATION_TYPE,NORAD_CAT_ID,ELEMENT_SET_NO,REV_AT_EPOCH,BSTAR,MEAN_MOTION_DOT,MEAN_MOTION_DDOT
LUDI TANCE 1-01A (L-SAR 01A),2022-007A,2026-06-06T06:58:07.834080,14.88420509,.00016039,97.8104,164.8652,90.0363,270.1038,0,U,51284,999,23685,.84377389E-4,.728E-5,0
LUDI TANCE 1-01B (L-SAR 01B),2022-018A,2026-06-06T07:46:30.580320,14.88422712,.00015772,97.8109,164.8941,93.9564,266.1833,0,U,51822,999,23209,.82533217E-4,.711E-5,0
JILIN-1 GAOFEN 03D15,2022-019R,2026-06-05T22:08:09.218688,16.31769192,.0012717,97.3560,254.9435,264.8257,95.1587,0,U,51839,999,23834,.9485E-3,.4986191E-1,.24754E-5
2022-023F,2022-023F,2026-06-05T14:46:37.504704,15.18178709,.01289363,63.4460,312.8176,343.1404,16.5440,0,U,51951,999,23595,.6714487E-3,.16965E-3,0
MERIDIAN 10,2022-030A,2026-06-05T12:08:03.916896,2.00614940,.678052,62.6780,142.0470,272.8634,17.6773,0,U,52145,999,3079,0,.223E-5,0
OMNI-L1,2022-033A,2026-06-05T10:28:39.343008,14.82704063,.00043854,97.8390,235.8425,338.0481,22.0544,0,U,52157,999,22571,.29444768E-3,.2324E-4,0
ENMAP,2022-033C,2026-06-06T05:50:38.426784,14.74977813,.00013969,97.9789,239.6480,79.2466,280.8900,0,U,52159,999,22504,.48195573E-4,.274E-5,0
ARCSAT-1,2022-033E,2026-06-04T05:49:18.938784,15.53290234,.00035768,97.2749,247.3261,231.4725,128.6209,0,U,52161,999,23369,.2369493E-3,.14842E-3,0
GLOBAL-18,2022-034B,2026-06-06T03:16:05.045664,15.45795168,.00035081,52.9830,309.4363,219.6317,140.4432,0,U,52196,999,23525,.6004841E-3,.29246E-3,0
GAOFEN-3 03,2022-035A,2026-06-06T08:05:44.162016,14.42213873,.00010678,98.4063,166.0754,94.1629,265.9682,0,U,52200,999,21928,.27034575E-4,.46E-6,0
DAQI-1,2022-039A,2026-06-06T07:11:38.887296,14.57671777,.00025691,98.1487,96.3775,307.7015,52.3951,0,U,52257,999,22035,.12843652E-3,.541E-5,0
BRO-6,2022-047AE,2026-06-06T07:02:12.450624,15.49800000,.00057498,97.3395,248.1455,113.0691,247.1167,0,U,52422,999,22946,.83468351E-3,.46588E-3,0
JILIN-1 GAOFEN 3D27,2022-048B,2026-06-05T20:08:36.768480,15.72760792,.00025897,97.5697,269.7707,98.7866,261.3691,0,U,52444,999,22769,.10709701E-2,.146381E-2,0
JILIN-1 GAOFEN 3D28,2022-048C,2026-06-06T04:14:23.142336,15.75504894,.00018904,97.5643,270.2452,146.5115,213.6270,0,U,52445,999,22779,.10438186E-2,.160719E-2,0
VIGORIDE-3,2022-057AE,2026-06-06T03:27:01.175040,15.27163249,.00089142,97.6599,296.8280,154.7626,205.4049,0,U,52760,999,22347,.28482586E-3,.7516E-4,0
ION SCV-006,2022-057AF,2026-06-06T05:17:34.471968,15.45015835,.0018092,97.6095,305.3199,150.8537,209.3725,0,U,52761,999,22442,.35810983E-3,.16915E-3,0
SHERPA-AC1,2022-057AH,2026-06-05T20:42:54.604800,15.36102557,.00087539,97.6679,305.6196,127.7405,232.4633,0,U,52763,999,22396,.26930618E-3,.9397E-4,0
OMNI-L2,2022-057AR,2026-06-05T10:29:03.851232,14.81338531,.00068638,97.4719,219.5847,17.0910,343.0534,0,U,52771,999,21865,.20816829E-3,.1579E-4,0
STEP CUBE LAB-II,2022-065D,2026-06-06T06:19:33.184992,14.63286370,.00098543,98.2222,301.1996,62.9625,297.2581,0,U,52897,999,20990,.20793975E-3,.1025E-4,0
RANDEV,2022-065E,2026-06-06T04:46:49.031040,14.63672756,.00091935,98.2205,301.4823,63.5253,296.6891,0,U,52898,999,20964,.20249597E-3,.1006E-4,0
SNUGLITE-II,2022-065F,2026-06-05T08:18:53.878752,14.64324999,.00086036,98.2190,301.1992,66.1364,294.0739,0,U,52899,999,20926,.21539832E-3,.1089E-4,0
MIMAN,2022-065G,2026-06-05T08:14:59.664768,14.61830654,.00087825,98.2247,298.8869,67.7423,292.4709,0,U,52900,999,20871,.13477726E-3,.626E-5,0
STARLINK-4362,2022-077A,2026-06-05T12:03:35.638848,15.05678406,.00023613,97.3985,335.9656,86.0060,274.1437,0,U,53043,999,21412,-.42986531E-3,-.626E-4,0
LARES-2,2022-080A,2026-06-03T13:15:00.088704,6.38965171,.00053798,70.1655,310.0052,337.8766,22.1504,0,U,53105,999,9079,0,-.12E-6,0
GREENCUBE (IO-117),2022-080E,2026-06-01T11:09:37.753056,6.42583280,.00088692,70.1435,303.7143,293.3663,66.6064,0,U,53109,999,9105,0,-.3E-7,0
STARLINK-4410,2022-084R,2026-06-06T06:00:02.000160,15.26928992,.00012824,97.5997,218.1118,76.1115,112.2606,0,U,53204,999,565,.12019769E-2,.31812E-3,0
COSMOS 2558,2022-089A,2026-06-05T21:27:06.486912,15.72866911,.000074,97.2256,260.5175,173.6635,186.4639,0,U,53323,999,21605,.96647E-3,.132437E-2,0
